{
  "norad_id": 63681,
  "name": "STARLINK-33886",
  "history": [
    {
      "epoch": "2026-03-28T21:35:45.758688Z",
      "apogee_km": 484.2087517746759,
      "perigee_km": 481.7716793877016,
      "latitude_deg": -2.892045198760242e-07,
      "longitude_deg": 131.6697845503321,
      "height_km": 482.5607104727632,
      "semi_major_axis_km": 6861.1272155811885,
      "eccentricity": 0.0001776,
      "inclination_deg": 43.0006,
      "raan_deg": 281.9241,
      "arg_perigee_deg": 279.7607,
      "mean_anomaly_deg": 80.3044,
      "mean_motion_rev_day": 15.27599664
    },
    {
      "epoch": "2026-03-28T21:35:45.759552Z",
      "apogee_km": 484.2089576084927,
      "perigee_km": 481.7714735538848,
      "latitude_deg": 2.035814464540013e-06,
      "longitude_deg": 131.66978341992154,
      "height_km": 482.5606755820619,
      "semi_major_axis_km": 6861.1272155811885,
      "eccentricity": 0.00017763,
      "inclination_deg": 43.0006,
      "raan_deg": 281.9241,
      "arg_perigee_deg": 279.7607,
      "mean_anomaly_deg": 80.3044,
      "mean_motion_rev_day": 15.27599664
    },
    {
      "epoch": "2026-03-29T22:42:15.556896Z",
      "apogee_km": 484.08992693849814,
      "perigee_km": 481.8573215413717,
      "latitude_deg": -2.2084843238332042e-05,
      "longitude_deg": 108.10724224122237,
      "height_km": 482.70406996045864,
      "semi_major_axis_km": 6861.110624239935,
      "eccentricity": 0.0001627,
      "inclination_deg": 43.0003,
      "raan_deg": 276.0169,
      "arg_perigee_deg": 272.3863,
      "mean_anomaly_deg": 87.6802,
      "mean_motion_rev_day": 15.27605205
    },
    {
      "epoch": "2026-03-30T04:58:53.539104Z",
      "apogee_km": 483.70830990242575,
      "perigee_km": 482.3015013660952,
      "latitude_deg": 5.862930193622576e-05,
      "longitude_deg": 12.212073236381121,
      "height_km": 482.68612921566285,
      "semi_major_axis_km": 6861.14190563426,
      "eccentricity": 0.00010252,
      "inclination_deg": 42.998,
      "raan_deg": 274.5377,
      "arg_perigee_deg": 277.7564,
      "mean_anomaly_deg": 82.3172,
      "mean_motion_rev_day": 15.27594758
    },
    {
      "epoch": "2026-03-30T12:49:40.781856Z",
      "apogee_km": 483.33721303780385,
      "perigee_km": 482.7472888458069,
      "latitude_deg": 2.895013223579555e-05,
      "longitude_deg": -107.64994534850292,
      "height_km": 482.84963686000674,
      "semi_major_axis_km": 6861.179250941805,
      "eccentricity": 4.299e-05,
      "inclination_deg": 42.9968,
      "raan_deg": 272.6948,
      "arg_perigee_deg": 263.7876,
      "mean_anomaly_deg": 96.2927,
      "mean_motion_rev_day": 15.27582286
    },
    {
      "epoch": "2026-03-30T20:40:27.862176Z",
      "apogee_km": 483.96452136737025,
      "perigee_km": 482.161260811994,
      "latitude_deg": 5.531511181191675e-05,
      "longitude_deg": 132.4865744816739,
      "height_km": 482.9502947188988,
      "semi_major_axis_km": 6861.199891089682,
      "eccentricity": 0.00013141,
      "inclination_deg": 43.0016,
      "raan_deg": 270.8497,
      "arg_perigee_deg": 262.9524,
      "mean_anomaly_deg": 97.1179,
      "mean_motion_rev_day": 15.27575393
    },
    {
      "epoch": "2026-03-31T18:38:39.610176Z",
      "apogee_km": 484.69430605880007,
      "perigee_km": 481.37349934189297,
      "latitude_deg": -1.0765704736160599e-05,
      "longitude_deg": 156.8619823005948,
      "height_km": 482.5340097232477,
      "semi_major_axis_km": 6861.170902700346,
      "eccentricity": 0.000242,
      "inclination_deg": 43.0013,
      "raan_deg": 265.6764,
      "arg_perigee_deg": 279.6219,
      "mean_anomaly_deg": 80.4359,
      "mean_motion_rev_day": 15.27585074
    }
  ]
}